start=new Date('2022-03-22T00:00:00.000Z').valueOf();
sats=[{"PERIAPSIS":"545.886","APOAPSIS":"548.512","TLE_LINE1":"1 45198U 20012W   22080.64057035  .00000247  00000-0  35466-4 0  9995","ARG_OF_PERICENTER":"56.0404","CENTER_NAME":"EARTH","INCLINATION":"53.0546","REV_AT_EPOCH":"11665","ELEMENT_SET_NO":"999","REF_FRAME":"TEME","MEAN_ELEMENT_THEORY":"SGP4","RA_OF_ASC_NODE":"51.6454","MEAN_MOTION":"15.06404755","SEMIMAJOR_AXIS":"6925.334","COUNTRY_CODE":"US","RCS_SIZE":"LARGE","EPOCH":"2022-03-21T15:22:25.278240","FILE":"3368836","EPHEMERIS_TYPE":"0","SITE":"AFETR","OBJECT_ID":"2020-012W","LAUNCH_DATE":"2020-02-17","MEAN_ANOMALY":"304.0765","MEAN_MOTION_DDOT":"0.0000000000000","GP_ID":"199346158","PERIOD":"95.592","BSTAR":"0.00003546600000","DECAY_DATE":null,"OBJECT_TYPE":"PAYLOAD","CLASSIFICATION_TYPE":"U","OBJECT_NAME":"STARLINK-1154","TLE_LINE2":"2 45198  53.0546  51.6454 0001896  56.0404 304.0765 15.06404755116651","MEAN_MOTION_DOT":"0.00000247","TIME_SYSTEM":"UTC","NORAD_CAT_ID":"45198","ECCENTRICITY":"0.00018960"},{"TIME_SYSTEM":"UTC","MEAN_MOTION_DOT":"0.00003682","ECCENTRICITY":"0.00018200","NORAD_CAT_ID":"45199","TLE_LINE2":"2 45199  53.0539  50.4355 0001820  63.8471 296.2705 15.06415371116751","OBJECT_NAME":"STARLINK-1197","OBJECT_TYPE":"PAYLOAD","BSTAR":"0.00026583000000","DECAY_DATE":null,"CLASSIFICATION_TYPE":"U","MEAN_MOTION_DDOT":"0.0000000000000","MEAN_ANOMALY":"296.2705","PERIOD":"95.591","GP_ID":"199346907","SITE":"AFETR","EPHEMERIS_TYPE":"0","LAUNCH_DATE":"2020-02-17","OBJECT_ID":"2020-012X","FILE":"3368836","COUNTRY_CODE":"US","RCS_SIZE":"LARGE","SEMIMAJOR_AXIS":"6925.301","EPOCH":"2022-03-21T21:49:52.558176","RA_OF_ASC_NODE":"50.4355","MEAN_MOTION":"15.06415371","REV_AT_EPOCH":"11675","ELEMENT_SET_NO":"999","REF_FRAME":"TEME","MEAN_ELEMENT_THEORY":"SGP4","INCLINATION":"53.0539","CENTER_NAME":"EARTH","ARG_OF_PERICENTER":"63.8471","APOAPSIS":"548.427","PERIAPSIS":"545.906","TLE_LINE1":"1 45199U 20012X   22080.90963609  .00003682  00000-0  26583-3 0  9993"},{"CLASSIFICATION_TYPE":"U","BSTAR":"0.00010024000000","DECAY_DATE":null,"OBJECT_TYPE":"PAYLOAD","OBJECT_NAME":"STARLINK-1199","TLE_LINE2":"2 45201  53.0540  50.4128 0001956  62.9330 297.1858 15.06404451116755","NORAD_CAT_ID":"45201","ECCENTRICITY":"0.00019560","MEAN_MOTION_DOT":"0.00001212","TIME_SYSTEM":"UTC","FILE":"3368836","OBJECT_ID":"2020-012Z","LAUNCH_DATE":"2020-02-17","EPHEMERIS_TYPE":"0","SITE":"AFETR","GP_ID":"199345157","PERIOD":"95.592","MEAN_ANOMALY":"297.1858","MEAN_MOTION_DDOT":"0.0000000000000","INCLINATION":"53.0540","MEAN_ELEMENT_THEORY":"SGP4","REF_FRAME":"TEME","REV_AT_EPOCH":"11675","ELEMENT_SET_NO":"999","MEAN_MOTION":"15.06404451","RA_OF_ASC_NODE":"50.4128","EPOCH":"2022-03-21T22:00:29.807424","SEMIMAJOR_AXIS":"6925.335","COUNTRY_CODE":"US","RCS_SIZE":"LARGE","TLE_LINE1":"1 45201U 20012Z   22080.91701166  .00001212  00000-0  10024-3 0  9996","PERIAPSIS":"545.845","APOAPSIS":"548.555","ARG_OF_PERICENTER":"62.9330","CENTER_NAME":"EARTH"},{"FILE":"3368836","SITE":"AFETR","EPHEMERIS_TYPE":"0","OBJECT_ID":"2020-012AA","LAUNCH_DATE":"2020-02-17","MEAN_MOTION_DDOT":"0.0000000000000","MEAN_ANOMALY":"292.3707","PERIOD":"95.280","GP_ID":"199345407","OBJECT_TYPE":"PAYLOAD","DECAY_DATE":null,"BSTAR":"0.00074478000000","CLASSIFICATION_TYPE":"U","OBJECT_NAME":"STARLINK-1203","TLE_LINE2":"2 45202  52.9808  62.0341 0001862  67.7481 292.3707 15.11331648116554","TIME_SYSTEM":"UTC","MEAN_MOTION_DOT":"0.00012424","ECCENTRICITY":"0.00018620","NORAD_CAT_ID":"45202","APOAPSIS":"533.427","PERIAPSIS":"530.853","TLE_LINE1":"1 45202U 20012AA  22080.66911780  .00012424  00000-0  74478-3 0  9994","ARG_OF_PERICENTER":"67.7481","CENTER_NAME":"EARTH","INCLINATION":"52.9808","REV_AT_EPOCH":"11655","ELEMENT_SET_NO":"999","MEAN_ELEMENT_THEORY":"SGP4","REF_FRAME":"TEME","RA_OF_ASC_NODE":"62.0341","MEAN_MOTION":"15.11331648","RCS_SIZE":"LARGE","COUNTRY_CODE":"US","SEMIMAJOR_AXIS":"6910.275","EPOCH":"2022-03-21T16:03:31.777920"},{"RA_OF_ASC_NODE":"50.2983","MEAN_MOTION":"15.06392507","SEMIMAJOR_AXIS":"6925.372","COUNTRY_CODE":"US","RCS_SIZE":"LARGE","EPOCH":"2022-03-21T22:37:39.746496","INCLINATION":"53.0575","REV_AT_EPOCH":"11677","ELEMENT_SET_NO":"999","MEAN_ELEMENT_THEORY":"SGP4","REF_FRAME":"TEME","ARG_OF_PERICENTER":"55.0771","CENTER_NAME":"EARTH","PERIAPSIS":"545.856","APOAPSIS":"548.617","TLE_LINE1":"1 45204U 20012AC  22080.94282114  .00000858  00000-0  76527-4 0  9995","TLE_LINE2":"2 45204  53.0575  50.2983 0001994  55.0771 305.0405 15.06392507116774","MEAN_MOTION_DOT":"0.00000858","TIME_SYSTEM":"UTC","NORAD_CAT_ID":"45204","ECCENTRICITY":"0.00019940","DECAY_DATE":null,"BSTAR":"0.00007652700000","OBJECT_TYPE":"PAYLOAD","CLASSIFICATION_TYPE":"U","OBJECT_NAME":"STARLINK-1206","EPHEMERIS_TYPE":"0","SITE":"AFETR","OBJECT_ID":"2020-012AC","LAUNCH_DATE":"2020-02-17","MEAN_ANOMALY":"305.0405","MEAN_MOTION_DDOT":"0.0000000000000","GP_ID":"199346657","PERIOD":"95.593","FILE":"3368836"},{"ARG_OF_PERICENTER":"59.1713","CENTER_NAME":"EARTH","TLE_LINE1":"1 45205U 20012AD  22080.63319870  .00001644  00000-0  12925-3 0  9997","APOAPSIS":"548.514","PERIAPSIS":"545.883","MEAN_MOTION":"15.06404922","RA_OF_ASC_NODE":"51.6723","EPOCH":"2022-03-21T15:11:48.367680","COUNTRY_CODE":"US","RCS_SIZE":"LARGE","SEMIMAJOR_AXIS":"6925.333","INCLINATION":"53.0546","MEAN_ELEMENT_THEORY":"SGP4","REF_FRAME":"TEME","ELEMENT_SET_NO":"999","REV_AT_EPOCH":"11673","LAUNCH_DATE":"2020-02-17","OBJECT_ID":"2020-012AD","SITE":"AFETR","EPHEMERIS_TYPE":"0","PERIOD":"95.592","GP_ID":"199346409","MEAN_MOTION_DDOT":"0.0000000000000","MEAN_ANOMALY":"300.9463","FILE":"3368836","TLE_LINE2":"2 45205  53.0546  51.6723 0001900  59.1713 300.9463 15.06404922116737","ECCENTRICITY":"0.00019000","NORAD_CAT_ID":"45205","TIME_SYSTEM":"UTC","MEAN_MOTION_DOT":"0.00001644","CLASSIFICATION_TYPE":"U","OBJECT_TYPE":"PAYLOAD","DECAY_DATE":null,"BSTAR":"0.00012925000000","OBJECT_NAME":"STARLINK-1208"},{"INCLINATION":"53.0549","REF_FRAME":"TEME","MEAN_ELEMENT_THEORY":"SGP4","REV_AT_EPOCH":"11607","ELEMENT_SET_NO":"999","MEAN_MOTION":"15.06404400","RA_OF_ASC_NODE":"30.6713","EPOCH":"2022-03-21T20:38:13.750368","RCS_SIZE":"LARGE","COUNTRY_CODE":"US","SEMIMAJOR_AXIS":"6925.335","TLE_LINE1":"1 45206U 20012AE  22080.85988137  .00000423  00000-0  47284-4 0  9991","APOAPSIS":"548.414","PERIAPSIS":"545.986","ARG_OF_PERICENTER":"66.1281","CENTER_NAME":"EARTH","CLASSIFICATION_TYPE":"U","OBJECT_TYPE":"PAYLOAD","DECAY_DATE":null,"BSTAR":"0.00004728400000","OBJECT_NAME":"STARLINK-1209","TLE_LINE2":"2 45206  53.0549  30.6713 0001753  66.1281 293.9892 15.06404400116076","ECCENTRICITY":"0.00017530","NORAD_CAT_ID":"45206","TIME_SYSTEM":"UTC","MEAN_MOTION_DOT":"0.00000423","FILE":"3368836","OBJECT_ID":"2020-012AE","LAUNCH_DATE":"2020-02-17","SITE":"AFETR","EPHEMERIS_TYPE":"0","PERIOD":"95.592","GP_ID":"199345656","MEAN_MOTION_DDOT":"0.0000000000000","MEAN_ANOMALY":"293.9892"},{"ARG_OF_PERICENTER":"62.6209","CENTER_NAME":"EARTH","TLE_LINE1":"1 45207U 20012AF  22080.92070434  .00000690  00000-0  65228-4 0  9996","APOAPSIS":"548.372","PERIAPSIS":"546.041","RA_OF_ASC_NODE":"50.3853","MEAN_MOTION":"15.06402316","EPOCH":"2022-03-21T22:05:48.854976","RCS_SIZE":"LARGE","COUNTRY_CODE":"US","SEMIMAJOR_AXIS":"6925.341","INCLINATION":"53.0560","MEAN_ELEMENT_THEORY":"SGP4","REF_FRAME":"TEME","ELEMENT_SET_NO":"999","REV_AT_EPOCH":"11675","OBJECT_ID":"2020-012AF","LAUNCH_DATE":"2020-02-17","SITE":"AFETR","EPHEMERIS_TYPE":"0","PERIOD":"95.592","GP_ID":"199345906","MEAN_MOTION_DDOT":"0.0000000000000","MEAN_ANOMALY":"297.4951","FILE":"3368836","TLE_LINE2":"2 45207  53.0560  50.3853 0001683  62.6209 297.4951 15.06402316116751","ECCENTRICITY":"0.00016830","NORAD_CAT_ID":"45207","TIME_SYSTEM":"UTC","MEAN_MOTION_DOT":"0.00000690","CLASSIFICATION_TYPE":"U","OBJECT_TYPE":"PAYLOAD","BSTAR":"0.00006522800000","DECAY_DATE":null,"OBJECT_NAME":"STARLINK-1210"},{"OBJECT_NAME":"STARLINK-1211","CLASSIFICATION_TYPE":"U","OBJECT_TYPE":"PAYLOAD","DECAY_DATE":null,"BSTAR":"0.00033200000000","ECCENTRICITY":"0.00019790","NORAD_CAT_ID":"45208","TIME_SYSTEM":"UTC","MEAN_MOTION_DOT":"0.00004564","TLE_LINE2":"2 45208  53.0020  53.1635 0001979  62.6875 297.4315 15.05604106116562","FILE":"3368827","PERIOD":"95.643","GP_ID":"199321254","MEAN_MOTION_DDOT":"0.0000000000000","MEAN_ANOMALY":"297.4315","OBJECT_ID":"2020-012AG","LAUNCH_DATE":"2020-02-17","SITE":"AFETR","EPHEMERIS_TYPE":"0","MEAN_ELEMENT_THEORY":"SGP4","REF_FRAME":"TEME","ELEMENT_SET_NO":"999","REV_AT_EPOCH":"11656","INCLINATION":"53.0020","EPOCH":"2022-03-21T07:14:28.218336","COUNTRY_CODE":"US","RCS_SIZE":"LARGE","SEMIMAJOR_AXIS":"6927.789","MEAN_MOTION":"15.05604106","RA_OF_ASC_NODE":"53.1635","TLE_LINE1":"1 45208U 20012AG  22080.30171549  .00004564  00000-0  33200-3 0  9996","APOAPSIS":"551.025","PERIAPSIS":"548.283","CENTER_NAME":"EARTH","ARG_OF_PERICENTER":"62.6875"},{"PERIOD":"91.329","GP_ID":"199346908","MEAN_MOTION_DDOT":"0.0000000000000","MEAN_ANOMALY":"75.0256","LAUNCH_DATE":"2020-02-17","OBJECT_ID":"2020-012AH","SITE":"AFETR","EPHEMERIS_TYPE":"0","FILE":"3368836","ECCENTRICITY":"0.00090420","NORAD_CAT_ID":"45209","TIME_SYSTEM":"UTC","MEAN_MOTION_DOT":"-0.00008399","TLE_LINE2":"2 45209  53.0479 281.7437 0009042 284.9762  75.0256 15.76718777118499","OBJECT_NAME":"STARLINK-1218","CLASSIFICATION_TYPE":"U","OBJECT_TYPE":"PAYLOAD","DECAY_DATE":null,"BSTAR":"-0.00004715600000","CENTER_NAME":"EARTH","ARG_OF_PERICENTER":"284.9762","TLE_LINE1":"1 45209U 20012AH  22080.84978822 -.00008399  00000-0 -47156-4 0  9993","APOAPSIS":"345.821","PERIAPSIS":"333.672","EPOCH":"2022-03-21T20:23:41.702208","RCS_SIZE":"LARGE","COUNTRY_CODE":"US","SEMIMAJOR_AXIS":"6717.882","MEAN_MOTION":"15.76718777","RA_OF_ASC_NODE":"281.7437","REF_FRAME":"TEME","MEAN_ELEMENT_THEORY":"SGP4","REV_AT_EPOCH":"11849","ELEMENT_SET_NO":"999","INCLINATION":"53.0479"}];
